{
  "languages": [
    { "name": "Bulgarian", "alpha2": "bg", "nativeName": "Български", "direction": "LTR", "regions": ["Bulgaria"], "characterSet": "Cyrillic", "sampleText": "Здравейте, как сте?", "keyboardLayout": "Cyrillic", "languageCode": "bg-BG", "pluralizationRules": "1 form for singular, 1 for plural (e.g., '1 ябълка', '2 ябълки')" },
    { "name": "Croatian", "alpha2": "hr", "nativeName": "Hrvatski", "direction": "LTR", "regions": ["Croatia"], "characterSet": "Latin", "sampleText": "Dobar dan, kako ste?", "keyboardLayout": "QWERTY", "languageCode": "hr-HR", "pluralizationRules": "1 form for singular, 1 for plural (e.g., '1 mačka', '2 mačke')" },
    { "name": "Czech", "alpha2": "cs", "nativeName": "Čeština", "direction": "LTR", "regions": ["Czech Republic"], "characterSet": "Latin", "sampleText": "Dobrý den, jak se máte?", "keyboardLayout": "QWERTY", "languageCode": "cs-CZ", "pluralizationRules": "1 form for singular, 1 for plural (e.g., '1 pes', '2 psi')" },
    { "name": "Danish", "alpha2": "da", "nativeName": "Dansk", "direction": "LTR", "regions": ["Denmark"], "characterSet": "Latin", "sampleText": "Hej, hvordan har du det?", "keyboardLayout": "QWERTY", "languageCode": "da-DK", "pluralizationRules": "1 form for singular, 1 for plural (e.g., '1 kat', '2 katte')" },
    { "name": "Dutch", "alpha2": "nl", "nativeName": "Nederlands", "direction": "LTR", "regions": ["Netherlands", "Belgium"], "characterSet": "Latin", "sampleText": "Hallo, hoe gaat het?", "keyboardLayout": "QWERTY", "languageCode": "nl-NL", "pluralizationRules": "1 form for singular, 1 for plural (e.g., '1 hond', '2 honden')" },
    { "name": "English", "alpha2": "en", "nativeName": "English", "direction": "LTR", "regions": ["Ireland", "Malta"], "characterSet": "Latin", "sampleText": "Hello, how are you?", "keyboardLayout": "QWERTY", "languageCode": "en-IE", "pluralizationRules": "1 form for singular, 1 for plural (e.g., '1 cat', '2 cats')" },
    { "name": "Estonian", "alpha2": "et", "nativeName": "Eesti", "direction": "LTR", "regions": ["Estonia"], "characterSet": "Latin", "sampleText": "Tere, kuidas läheb?", "keyboardLayout": "QWERTY", "languageCode": "et-EE", "pluralizationRules": "1 form for singular, 1 for plural (e.g., '1 koer', '2 koerad')" },
    { "name": "Finnish", "alpha2": "fi", "nativeName": "Suomi", "direction": "LTR", "regions": ["Finland"], "characterSet": "Latin", "sampleText": "Hei, kuinka voit?", "keyboardLayout": "QWERTY", "languageCode": "fi-FI", "pluralizationRules": "1 form for singular, 1 for plural (e.g., '1 koira', '2 koirat')" },
    { "name": "French", "alpha2": "fr", "nativeName": "Français", "direction": "LTR", "regions": ["France", "Belgium", "Luxembourg"], "characterSet": "Latin", "sampleText": "Bonjour, comment ça va?", "keyboardLayout": "AZERTY", "languageCode": "fr-FR", "pluralizationRules": "1 form for singular, 1 for plural (e.g., '1 chat', '2 chats')" },
    { "name": "German", "alpha2": "de", "nativeName": "Deutsch", "direction": "LTR", "regions": ["Germany", "Austria", "Belgium", "Luxembourg"], "characterSet": "Latin", "sampleText": "Guten Tag, wie geht's?", "keyboardLayout": "QWERTZ", "languageCode": "de-DE", "pluralizationRules": "1 form for singular, 1 for plural (e.g., '1 Hund', '2 Hunde')" },
    { "name": "Greek", "alpha2": "el", "nativeName": "Ελληνικά", "direction": "LTR", "regions": ["Greece", "Cyprus"], "characterSet": "Greek", "sampleText": "Γειά σου!", "keyboardLayout": "Greek", "languageCode": "el-GR", "pluralizationRules": "1 form for singular, 1 for plural (e.g., '1 μήλο', '2 μήλα')" },
    { "name": "Hungarian", "alpha2": "hu", "nativeName": "Magyar", "direction": "LTR", "regions": ["Hungary"], "characterSet": "Latin", "sampleText": "Helló, hogy vagy?", "keyboardLayout": "QWERTY", "languageCode": "hu-HU", "pluralizationRules": "1 form for singular, 1 for plural (e.g., '1 kutya', '2 kutyák')" },
    { "name": "Irish", "alpha2": "ga", "nativeName": "Gaeilge", "direction": "LTR", "regions": ["Ireland"], "characterSet": "Latin", "sampleText": "Dia duit, conas atá tú?", "keyboardLayout": "QWERTY", "languageCode": "ga-IE", "pluralizationRules": "1 form for singular, 1 for plural (e.g., '1 cat', '2 cait')" },
    { "name": "Italian", "alpha2": "it", "nativeName": "Italiano", "direction": "LTR", "regions": ["Italy"], "characterSet": "Latin", "sampleText": "Ciao, come stai?", "keyboardLayout": "QWERTY", "languageCode": "it-IT", "pluralizationRules": "1 form for singular, 1 for plural (e.g., '1 cane', '2 cani')" },
    { "name": "Latvian", "alpha2": "lv", "nativeName": "Latviešu", "direction": "LTR", "regions": ["Latvia"], "characterSet": "Latin", "sampleText": "Sveiki, kā jums klājas?", "keyboardLayout": "QWERTY", "languageCode": "lv-LV", "pluralizationRules": "1 form for singular, 1 for plural (e.g., '1 suns', '2 suņi')" },
    { "name": "Lithuanian", "alpha2": "lt", "nativeName": "Lietuvių", "direction": "LTR", "regions": ["Lithuania"], "characterSet": "Latin", "sampleText": "Sveiki, kaip sekasi?", "keyboardLayout": "QWERTY", "languageCode": "lt-LT", "pluralizationRules": "1 form for singular, 1 for plural (e.g., '1 šuo', '2 šunys')" },
    { "name": "Maltese", "alpha2": "mt", "nativeName": "Malti", "direction": "LTR", "regions": ["Malta"], "characterSet": "Latin", "sampleText": "Bongu, kif int?", "keyboardLayout": "QWERTY", "languageCode": "mt-MT", "pluralizationRules": "1 form for singular, 1 for plural (e.g., '1 kelb', '2 klieb')" },
    { "name": "Polish", "alpha2": "pl", "nativeName": "Polski", "direction": "LTR", "regions": ["Poland"], "characterSet": "Latin", "sampleText": "Cześć, jak się masz?", "keyboardLayout": "QWERTY", "languageCode": "pl-PL", "pluralizationRules": "1 form for singular, 1 for plural (e.g., '1 pies', '2 psy')" },
    { "name": "Portuguese", "alpha2": "pt", "nativeName": "Português", "direction": "LTR", "regions": ["Portugal"], "characterSet": "Latin", "sampleText": "Olá, como vai?", "keyboardLayout": "QWERTY", "languageCode": "pt-PT", "pluralizationRules": "1 form for singular, 1 for plural (e.g., '1 gato', '2 gatos')" },
]}
