{
  "languages": [
     "_comment": "European languages",
    { "name": "Bulgarian", "alpha2": "bg", "nativeName": "Български", "direction": "LTR", "regions": ["Bulgaria"], "characterSet": "Cyrillic", "sampleText": "Здравейте, как сте?", "keyboardLayout": "Cyrillic", "languageCode": "bg-BG", "pluralizationRules": "1 form for singular, 1 for plural" },
    { "name": "Croatian", "alpha2": "hr", "nativeName": "Hrvatski", "direction": "LTR", "regions": ["Croatia"], "characterSet": "Latin", "sampleText": "Bok, kako si?", "keyboardLayout": "QWERTY", "languageCode": "hr-HR", "pluralizationRules": "1 form for singular, 1 for plural" },
    { "name": "Czech", "alpha2": "cs", "nativeName": "Čeština", "direction": "LTR", "regions": ["Czech Republic"], "characterSet": "Latin", "sampleText": "Ahoj, jak se máš?", "keyboardLayout": "QWERTY", "languageCode": "cs-CZ", "pluralizationRules": "1 form for singular, 1 for plural" },
    { "name": "Danish", "alpha2": "da", "nativeName": "Dansk", "direction": "LTR", "regions": ["Denmark"], "characterSet": "Latin", "sampleText": "Hej, hvordan har du det?", "keyboardLayout": "QWERTY", "languageCode": "da-DK", "pluralizationRules": "1 form for singular, 1 for plural" },
    { "name": "Dutch", "alpha2": "nl", "nativeName": "Nederlands", "direction": "LTR", "regions": ["Netherlands", "Belgium"], "characterSet": "Latin", "sampleText": "Hallo, hoe gaat het?", "keyboardLayout": "QWERTY", "languageCode": "nl-NL", "pluralizationRules": "1 form for singular, 1 for plural" },
    { "name": "English", "alpha2": "en", "nativeName": "English", "direction": "LTR", "regions": ["United Kingdom", "Ireland"], "characterSet": "Latin", "sampleText": "Hello, how are you?", "keyboardLayout": "QWERTY", "languageCode": "en-GB", "pluralizationRules": "1 form for singular, 1 for plural" },
    { "name": "Estonian", "alpha2": "et", "nativeName": "Eesti", "direction": "LTR", "regions": ["Estonia"], "characterSet": "Latin", "sampleText": "Tere, kuidas läheb?", "keyboardLayout": "QWERTY", "languageCode": "et-EE", "pluralizationRules": "1 form for singular, 1 for plural" },
    { "name": "Finnish", "alpha2": "fi", "nativeName": "Suomi", "direction": "LTR", "regions": ["Finland"], "characterSet": "Latin", "sampleText": "Hei, kuinka voit?", "keyboardLayout": "QWERTY", "languageCode": "fi-FI", "pluralizationRules": "1 form for singular, 1 for plural" },
    { "name": "French", "alpha2": "fr", "nativeName": "Français", "direction": "LTR", "regions": ["France", "Belgium", "Luxembourg"], "characterSet": "Latin", "sampleText": "Bonjour, comment ça va?", "keyboardLayout": "AZERTY", "languageCode": "fr-FR", "pluralizationRules": "1 form for singular, 1 for plural" },
    { "name": "German", "alpha2": "de", "nativeName": "Deutsch", "direction": "LTR", "regions": ["Germany", "Austria", "Belgium", "Luxembourg"], "characterSet": "Latin", "sampleText": "Guten Tag, wie geht's?", "keyboardLayout": "QWERTZ", "languageCode": "de-DE", "pluralizationRules": "1 form for singular, 1 for plural" },
    { "name": "Greek", "alpha2": "el", "nativeName": "Ελληνικά", "direction": "LTR", "regions": ["Greece", "Cyprus"], "characterSet": "Greek", "sampleText": "Γειά σου!", "keyboardLayout": "Greek", "languageCode": "el-GR", "pluralizationRules": "1 form for singular, 1 for plural" },
    { "name": "Hungarian", "alpha2": "hu", "nativeName": "Magyar", "direction": "LTR", "regions": ["Hungary"], "characterSet": "Latin", "sampleText": "Helló, hogy vagy?", "keyboardLayout": "QWERTY", "languageCode": "hu-HU", "pluralizationRules": "1 form for singular, 1 for plural" },
    { "name": "Irish", "alpha2": "ga", "nativeName": "Gaeilge", "direction": "LTR", "regions": ["Ireland"], "characterSet": "Latin", "sampleText": "Dia duit, conas atá tú?", "keyboardLayout": "QWERTY", "languageCode": "ga-IE", "pluralizationRules": "1 form for singular, 1 for plural" },
    { "name": "Italian", "alpha2": "it", "nativeName": "Italiano", "direction": "LTR", "regions": ["Italy"], "characterSet": "Latin", "sampleText": "Ciao, come stai?", "keyboardLayout": "QWERTY", "languageCode": "it-IT", "pluralizationRules": "1 form for singular, 1 for plural" },
    { "name": "Latvian", "alpha2": "lv", "nativeName": "Latviešu", "direction": "LTR", "regions": ["Latvia"], "characterSet": "Latin", "sampleText": "Sveiki, kā jums klājas?", "keyboardLayout": "QWERTY", "languageCode": "lv-LV", "pluralizationRules": "1 form for singular, 1 for plural" },
    { "name": "Lithuanian", "alpha2": "lt", "nativeName": "Lietuvių", "direction": "LTR", "regions": ["Lithuania"], "characterSet": "Latin", "sampleText": "Sveiki, kaip sekasi?", "keyboardLayout": "QWERTY", "languageCode": "lt-LT", "pluralizationRules": "1 form for singular, 1 for plural" },
    { "name": "Maltese", "alpha2": "mt", "nativeName": "Malti", "direction": "LTR", "regions": ["Malta"], "characterSet": "Latin", "sampleText": "Bongu, kif int?", "keyboardLayout": "QWERTY", "languageCode": "mt-MT", "pluralizationRules": "1 form for singular, 1 for plural" },
    { "name": "Polish", "alpha2": "pl", "nativeName": "Polski", "direction": "LTR", "regions": ["Poland"], "characterSet": "Latin", "sampleText": "Cześć, jak się masz?", "keyboardLayout": "QWERTY", "languageCode": "pl-PL", "pluralizationRules": "1 form for singular, 1 for plural" },
    { "name": "Portuguese", "alpha2": "pt", "nativeName": "Português", "direction": "LTR", "regions": ["Portugal"], "characterSet": "Latin", "sampleText": "Olá, como vai?", "keyboardLayout": "QWERTY", "languageCode": "pt-PT", "pluralizationRules": "1 form for singular, 1 for plural" },
    { "name": "Romanian", "alpha2": "ro", "nativeName": "Română", "direction": "LTR", "regions": ["Romania"], "characterSet": "Latin", "sampleText": "Bună ziua, ce mai faceți?", "keyboardLayout": "QWERTY", "languageCode": "ro-RO", "pluralizationRules": "1 form for singular, 1 for plural" },
    { "name": "Slovak", "alpha2": "sk", "nativeName": "Slovenčina", "direction": "LTR", "regions": ["Slovakia"], "characterSet": "Latin", "sampleText": "Ahoj, ako sa máš?", "keyboardLayout": "QWERTY", "languageCode": "sk-SK", "pluralizationRules": "1 form for singular, 1 for plural" },
    { "name": "Slovenian", "alpha2": "sl", "nativeName": "Slovenščina", "direction": "LTR", "regions": ["Slovenia"], "characterSet": "Latin", "sampleText": "Zdravo, kako si?", "keyboardLayout": "QWERTY", "languageCode": "sl-SI", "pluralizationRules": "1 form for singular, 1 for plural" },
    { "name": "Spanish", "alpha2": "es", "nativeName": "Español", "direction": "LTR", "regions": ["Spain"], "characterSet": "Latin", "sampleText": "Hola, ¿cómo estás?", "keyboardLayout": "QWERTY", "languageCode": "es-ES", "pluralizationRules": "1 form for singular, 1 for plural" },
    { "name": "Swedish", "alpha2": "sv", "nativeName": "Svenska", "direction": "LTR", "regions": ["Sweden"], "characterSet": "Latin", "sampleText": "Hej, hur mår du?", "keyboardLayout": "QWERTY", "languageCode": "sv-SE", "pluralizationRules": "1 form for singular, 1 for plural" }
     "_comment": "Asian languages",
    { "name": "Arabic", "alpha2": "ar", "nativeName": "العربية", "direction": "RTL", "regions": ["Middle East", "North Africa"], "characterSet": "Arabic", "sampleText": "مرحبًا، كيف حالك؟", "keyboardLayout": "Arabic", "languageCode": "ar-SA", "pluralizationRules": "1 form for singular, 1 for plural" },
    { "name": "Bengali", "alpha2": "bn", "nativeName": "বাংলা", "direction": "LTR", "regions": ["Bangladesh", "India"], "characterSet": "Bengali", "sampleText": "হ্যালো, কেমন আছো?", "keyboardLayout": "Bengali", "languageCode": "bn-BD", "pluralizationRules": "1 form for singular, 1 for plural" },
    { "name": "Chinese (Simplified)", "alpha2": "zh", "nativeName": "简体中文", "direction": "LTR", "regions": ["China", "Singapore"], "characterSet": "Chinese", "sampleText": "你好，你好吗?", "keyboardLayout": "Chinese (Pinyin)", "languageCode": "zh-CN", "pluralizationRules": "1 form for singular, 1 for plural" },
    { "name": "Chinese (Traditional)", "alpha2": "zh", "nativeName": "繁體中文", "direction": "LTR", "regions": ["Taiwan", "Hong Kong"], "characterSet": "Chinese", "sampleText": "你好，你好嗎?", "keyboardLayout": "Chinese (Pinyin)", "languageCode": "zh-TW", "pluralizationRules": "1 form for singular, 1 for plural" },
    { "name": "Hindi", "alpha2": "hi", "nativeName": "हिन्दी", "direction": "LTR", "regions": ["India", "Nepal"], "characterSet": "Devanagari", "sampleText": "नमस्ते, आप कैसे हैं?", "keyboardLayout": "Hindi", "languageCode": "hi-IN", "pluralizationRules": "1 form for singular, 1 for plural" },
    { "name": "Indonesian", "alpha2": "id", "nativeName": "Bahasa Indonesia", "direction": "LTR", "regions": ["Indonesia"], "characterSet": "Latin", "sampleText": "Halo, apa kabar?", "keyboardLayout": "QWERTY", "languageCode": "id-ID", "pluralizationRules": "1 form for singular, 1 for plural" },
    { "name": "Japanese", "alpha2": "ja", "nativeName": "日本語", "direction": "LTR", "regions": ["Japan"], "characterSet": "Kanji, Hiragana, Katakana", "sampleText": "こんにちは、お元気ですか?", "keyboardLayout": "Japanese", "languageCode": "ja-JP", "pluralizationRules": "1 form for singular, 1 for plural" },
    { "name": "Kazakh", "alpha2": "kk", "nativeName": "Қазақ тілі", "direction": "LTR", "regions": ["Kazakhstan"], "characterSet": "Cyrillic", "sampleText": "Сәлеметсіз бе?", "keyboardLayout": "Kazakh", "languageCode": "kk-KZ", "pluralizationRules": "1 form for singular, 1 for plural" },
    { "name": "Korean", "alpha2": "ko", "nativeName": "한국어", "direction": "LTR", "regions": ["South Korea", "North Korea"], "characterSet": "Hangul", "sampleText": "안녕하세요, 어떻게 지내세요?", "keyboardLayout": "Korean", "languageCode": "ko-KR", "pluralizationRules": "1 form for singular, 1 for plural" },
    { "name": "Malay", "alpha2": "ms", "nativeName": "Bahasa Melayu", "direction": "LTR", "regions": ["Malaysia", "Singapore"], "characterSet": "Latin", "sampleText": "Halo, apa khabar?", "keyboardLayout": "QWERTY", "languageCode": "ms-MY", "pluralizationRules": "1 form for singular, 1 for plural" },
    { "name": "Persian", "alpha2": "fa", "nativeName": "فارسی", "direction": "RTL", "regions": ["Iran", "Afghanistan", "Tajikistan"], "characterSet": "Persian", "sampleText": "سلام، حال شما چطور است?", "keyboardLayout": "Persian", "languageCode": "fa-IR", "pluralizationRules": "1 form for singular, 1 for plural" },
    { "name": "Punjabi", "alpha2": "pa", "nativeName": "ਪੰਜਾਬੀ", "direction": "LTR", "regions": ["India", "Pakistan"], "characterSet": "Gurmukhi, Shahmukhi", "sampleText": "ਹੈਲੋ, ਤੁਸੀਂ ਕਿਵੇਂ ਹੋ?", "keyboardLayout": "Punjabi", "languageCode": "pa-IN", "pluralizationRules": "1 form for singular, 1 for plural" },
    { "name": "Tamil", "alpha2": "ta", "nativeName": "தமிழ்", "direction": "LTR", "regions": ["India", "Sri Lanka", "Singapore"], "characterSet": "Tamil", "sampleText": "வணக்கம், எப்படி இருக்கீர்கள்?", "keyboardLayout": "Tamil", "languageCode": "ta-IN", "pluralizationRules": "1 form for singular, 1 for plural" },
    { "name": "Telugu", "alpha2": "te", "nativeName": "తెలుగు", "direction": "LTR", "regions": ["India"], "characterSet": "Telugu", "sampleText": "హలో, మీరు ఎలా ఉన్నారు?", "keyboardLayout": "Telugu", "languageCode": "te-IN", "pluralizationRules": "1 form for singular, 1 for plural" },
    { "name": "Thai", "alpha2": "th", "nativeName": "ไทย", "direction": "LTR", "regions": ["Thailand"], "characterSet": "Thai", "sampleText": "สวัสดี, สบายดีไหม?", "keyboardLayout": "Thai", "languageCode": "th-TH", "pluralizationRules": "1 form for singular, 1 for plural" },
    { "name": "Turkish", "alpha2": "tr", "nativeName": "Türkçe", "direction": "LTR", "regions": ["Turkey", "Cyprus"], "characterSet": "Latin", "sampleText": "Merhaba, nasılsınız?", "keyboardLayout": "QWERTY", "languageCode": "tr-TR", "pluralizationRules": "1 form for singular, 1 for plural" },
    { "name": "Urdu", "alpha2": "ur", "nativeName": "اردو", "direction": "RTL", "regions": ["Pakistan", "India"], "characterSet": "Arabic", "sampleText": "ہیلو، آپ کیسے ہیں؟", "keyboardLayout": "Urdu", "languageCode": "ur-PK", "pluralizationRules": "1 form for singular, 1 for plural" }
    "_comment": "African languages",
    { "name": "Amharic", "alpha2": "am", "nativeName": "አማርኛ", "direction": "LTR", "regions": ["Ethiopia"], "characterSet": "Ge'ez", "sampleText": "ሰላም እንዴት ነህ?", "keyboardLayout": "Amharic", "languageCode": "am-ET", "pluralizationRules": "1 form for singular, 1 for plural" },
    { "name": "Arabic", "alpha2": "ar", "nativeName": "العربية", "direction": "RTL", "regions": ["Northern Africa", "Middle East"], "characterSet": "Arabic", "sampleText": "مرحبًا، كيف حالك؟", "keyboardLayout": "Arabic", "languageCode": "ar-SA", "pluralizationRules": "1 form for singular, 1 for plural" },
    { "name": "Berber", "alpha2": "ber", "nativeName": "ⴰⵎⵓⵔⵉⵖ", "direction": "LTR", "regions": ["Morocco", "Algeria", "Tunisia"], "characterSet": "Tifinagh", "sampleText": "ⴰⵏⵏⵉⵖ, ⵙⴰⴳⴰⵔ?", "keyboardLayout": "Berber", "languageCode": "ber-MA", "pluralizationRules": "1 form for singular, 1 for plural" },
    { "name": "Bemba", "alpha2": "bem", "nativeName": "Bemba", "direction": "LTR", "regions": ["Zambia", "Democratic Republic of Congo"], "characterSet": "Latin", "sampleText": "Shani, mwandi?", "keyboardLayout": "Bemba", "languageCode": "bem-ZM", "pluralizationRules": "1 form for singular, 1 for plural" },
    { "name": "Chewa", "alpha2": "ny", "nativeName": "Chichewa", "direction": "LTR", "regions": ["Malawi", "Mozambique", "Zambia"], "characterSet": "Latin", "sampleText": "Moni, muli bwanji?", "keyboardLayout": "Chewa", "languageCode": "ny-MW", "pluralizationRules": "1 form for singular, 1 for plural" },
    { "name": "Chichewa", "alpha2": "ny", "nativeName": "Chichewa", "direction": "LTR", "regions": ["Malawi", "Zambia", "Mozambique"], "characterSet": "Latin", "sampleText": "Moni, muli bwanji?", "keyboardLayout": "Chichewa", "languageCode": "ny-MW", "pluralizationRules": "1 form for singular, 1 for plural" },
    { "name": "Hausa", "alpha2": "ha", "nativeName": "Hausa", "direction": "LTR", "regions": ["Nigeria", "Niger", "Chad"], "characterSet": "Latin", "sampleText": "Sannu, ya ya?", "keyboardLayout": "Hausa", "languageCode": "ha-NG", "pluralizationRules": "1 form for singular, 1 for plural" },
    { "name": "Igbo", "alpha2": "ig", "nativeName": "Igbo", "direction": "LTR", "regions": ["Nigeria"], "characterSet": "Latin", "sampleText": "Ndewo, kedu?", "keyboardLayout": "Igbo", "languageCode": "ig-NG", "pluralizationRules": "1 form for singular, 1 for plural" },
    { "name": "Kinyarwanda", "alpha2": "rw", "nativeName": "Kinyarwanda", "direction": "LTR", "regions": ["Rwanda"], "characterSet": "Latin", "sampleText": "Muraho, amakuru?", "keyboardLayout": "Kinyarwanda", "languageCode": "rw-RW", "pluralizationRules": "1 form for singular, 1 for plural" },
    { "name": "Kirundi", "alpha2": "rn", "nativeName": "Ikirundi", "direction": "LTR", "regions": ["Burundi"], "characterSet": "Latin", "sampleText": "Bwakeye, amakuru?", "keyboardLayout": "Kirundi", "languageCode": "rn-BI", "pluralizationRules": "1 form for singular, 1 for plural" },
    { "name": "Korean", "alpha2": "ko", "nativeName": "한국어", "direction": "LTR", "regions": ["South Korea", "North Korea"], "characterSet": "Hangul", "sampleText": "안녕하세요, 어떻게 지내세요?", "keyboardLayout": "Korean", "languageCode": "ko-KR", "pluralizationRules": "1 form for singular, 1 for plural" },
    { "name": "Lingala", "alpha2": "ln", "nativeName": "Lingala", "direction": "LTR", "regions": ["Democratic Republic of Congo", "Republic of Congo"], "characterSet": "Latin", "sampleText": "Mbote, ozali ndenge?", "keyboardLayout": "Lingala", "languageCode": "ln-CD", "pluralizationRules": "1 form for singular, 1 for plural" },
    { "name": "Luganda", "alpha2": "lg", "nativeName": "Luganda", "direction": "LTR", "regions": ["Uganda"], "characterSet": "Latin", "sampleText": "Oli otya, oli otya?", "keyboardLayout": "Luganda", "languageCode": "lg-UG", "pluralizationRules": "1 form for singular, 1 for plural" },
    { "name": "Malagasy", "alpha2": "mg", "nativeName": "Malagasy", "direction": "LTR", "regions": ["Madagascar"], "characterSet": "Latin", "sampleText": "Manao ahoana, manao ahoana?", "keyboardLayout": "Malagasy", "languageCode": "mg-MG", "pluralizationRules": "1 form for singular, 1 for plural" },
    { "name": "Maasai", "alpha2": "mas", "nativeName": "Maa", "direction": "LTR", "regions": ["Kenya", "Tanzania"], "characterSet": "Latin", "sampleText": "Sia, ormagai?", "keyboardLayout": "Maasai", "languageCode": "mas-KE", "pluralizationRules": "1 form for singular, 1 for plural" },
    { "name": "Ndebele", "alpha2": "nd", "nativeName": "IsiNdebele", "direction": "LTR", "regions": ["Zimbabwe"], "characterSet": "Latin", "sampleText": "Sawubona, unjani?", "keyboardLayout": "Ndebele", "languageCode": "nd-ZW", "pluralizationRules": "1 form for singular, 1 for plural" },
    { "name": "Nigerian Pidgin", "alpha2": "pcm", "nativeName": "Pidgin", "direction": "LTR", "regions": ["Nigeria"], "characterSet": "Latin", "sampleText": "How far, how you dey?", "keyboardLayout": "Pidgin", "languageCode": "pcm-NG", "pluralizationRules": "1 form for singular, 1 for plural" },
    { "name": "Oromo", "alpha2": "om", "nativeName": "Afaan Oromoo", "direction": "LTR", "regions": ["Ethiopia", "Kenya"], "characterSet": "Latin", "sampleText": "Akam jirta, akkam?" , "keyboardLayout": "Oromo", "languageCode": "om-ET", "pluralizationRules": "1 form for singular, 1 for plural" },
    { "name": "Shona", "alpha2": "sn", "nativeName": "Shona", "direction": "LTR", "regions": ["Zimbabwe"], "characterSet": "Latin", "sampleText": "Mhoro, wakadini?", "keyboardLayout": "Shona", "languageCode": "sn-ZW", "pluralizationRules": "1 form for singular, 1 for plural" },
    { "name": "Somali", "alpha2": "so", "nativeName": "Soomaali", "direction": "LTR", "regions": ["Somalia", "Ethiopia", "Djibouti", "Kenya"], "characterSet": "Latin", "sampleText": "Hello, sidee tahay?", "keyboardLayout": "Somali", "languageCode": "so-SO", "pluralizationRules": "1 form for singular, 1 for plural" },
    { "name": "Swahili", "alpha2": "sw", "nativeName": "Kiswahili", "direction": "LTR", "regions": ["East Africa"], "characterSet": "Latin", "sampleText": "Habari, habari yako?", "keyboardLayout": "Swahili", "languageCode": "sw-KE", "pluralizationRules": "1 form for singular, 1 for plural" },
    { "name": "Xhosa", "alpha2": "xh", "nativeName": "isiXhosa", "direction": "LTR", "regions": ["South Africa", "Zimbabwe"], "characterSet": "Latin", "sampleText": "Molo, unjani?", "keyboardLayout": "Xhosa", "languageCode": "xh-ZA", "pluralizationRules": "1 form for singular, 1 for plural" },
    { "name": "Zulu", "alpha2": "zu", "nativeName": "isiZulu", "direction": "LTR", "regions": ["South Africa", "Swaziland"], "characterSet": "Latin", "sampleText": "Sawubona, unjani?", "keyboardLayout": "Zulu", "languageCode": "zu-ZA", "pluralizationRules": "1 form for singular, 1 for plural" }
    "_comment": "South-american languages"
    { "name": "Spanish", "alpha2": "es", "nativeName": "Español", "direction": "LTR", "regions": ["Argentina", "Bolivia", "Brazil", "Chile", "Colombia", "Ecuador", "Guyana", "Paraguay", "Peru", "Suriname", "Uruguay", "Venezuela"], "characterSet": "Latin", "sampleText": "Hola, ¿cómo estás?", "keyboardLayout": "Spanish", "languageCode": "es-AR", "pluralizationRules": "1 form for singular, 1 for plural" },
    { "name": "Portuguese", "alpha2": "pt", "nativeName": "Português", "direction": "LTR", "regions": ["Brazil"], "characterSet": "Latin", "sampleText": "Olá, como vai?", "keyboardLayout": "Portuguese", "languageCode": "pt-BR", "pluralizationRules": "1 form for singular, 1 for plural" },
    { "name": "Quechua", "alpha2": "qu", "nativeName": "Qhichwa", "direction": "LTR", "regions": ["Peru", "Bolivia", "Ecuador", "Argentina", "Chile"], "characterSet": "Latin", "sampleText": "Ñuqanchik, imayna kachkanki?", "keyboardLayout": "Quechua", "languageCode": "qu-PE", "pluralizationRules": "1 form for singular, 1 for plural" },
    { "name": "Aymara", "alpha2": "ay", "nativeName": "Aymara", "direction": "LTR", "regions": ["Bolivia", "Peru", "Chile"], "characterSet": "Latin", "sampleText": "Kamisaki, jichhura?", "keyboardLayout": "Aymara", "languageCode": "ay-BO", "pluralizationRules": "1 form for singular, 1 for plural" },
    { "name": "Guaraní", "alpha2": "gn", "nativeName": "Aña", "direction": "LTR", "regions": ["Paraguay", "Argentina", "Brazil", "Bolivia"], "characterSet": "Latin", "sampleText": "Mba'eichapa, mba'e porã?", "keyboardLayout": "Guaraní", "languageCode": "gn-PY", "pluralizationRules": "1 form for singular, 1 for plural" },
    { "name": "Dutch", "alpha2": "nl", "nativeName": "Nederlands", "direction": "LTR", "regions": ["Suriname"], "characterSet": "Latin", "sampleText": "Hallo, hoe gaat het?", "keyboardLayout": "Dutch", "languageCode": "nl-SR", "pluralizationRules": "1 form for singular, 1 for plural" },
    { "name": "English", "alpha2": "en", "nativeName": "English", "direction": "LTR", "regions": ["Guyana"], "characterSet": "Latin", "sampleText": "Hello, how are you?", "keyboardLayout": "English", "languageCode": "en-GY", "pluralizationRules": "1 form for singular, 1 for plural" }
  ]
}
